SIRION PATHFINDER-2     
1 43759U 18099B   26166.66218061  .00003885  00000+0  21421-3 0  9992
2 43759  97.4253 215.7559 0007275 311.6341  48.4267 15.14537445412393
CORVUS BC4              
1 43767U 18099K   26166.93131546  .00004194  00000+0  24447-3 0  9998
2 43767  97.4064 209.9482 0008354  17.0793 343.0717 15.12487398412213
M2 PATHFINDER           
1 45727U 20037E   26166.98284774  .00001662  00000+0  12259-3 0  9993
2 45727  97.8148 358.2013 0012432 149.6775 210.5173 15.04672820325315
NETSAT-4                
1 46504U 20068U   26166.95813163  .00014877  00000+0  33012-3 0  9990
2 46504  97.8598 175.1000 0003977 343.4852  16.6265 15.43830412315585
NETSAT-3                
1 46505U 20068V   26166.96346330  .00015528  00000+0  35840-3 0  9994
2 46505  97.8647 173.3237 0004368   6.6001 353.5302 15.42642077315494
NETSAT-1                
1 46506U 20068W   26166.96175425  .00010438  00000+0  31359-3 0  9996
2 46506  97.8738 167.6674 0005177  36.2588 323.9003 15.34618921315115
NETSAT-2                
1 46507U 20068X   26166.99987977  .00020165  00000+0  41545-3 0  9999
2 46507  97.8608 175.0355 0003599  30.6879 329.4578 15.45954371315558
GREENCUBE (IO-117)      
1 53109U 22080E   26164.29338770 -.00000003  00000+0  00000+0 0  9990
2 53109  70.1444 299.5995 0008910 290.4576  69.5127  6.42583230 91811
SITRO-AIS 5 (KATYS)     
1 57176U 23091L   26167.15403363  .00010317  00000+0  36318-3 0  9993
2 57176  97.5063 231.0433 0012768 106.5917 253.6726 15.29438096164185
SITRO-AIS 6 (CHIRKIN)   
1 57192U 23091AC  26167.19617536  .00008800  00000+0  34506-3 0  9995
2 57192  97.5069 230.2104 0013097 109.4961 250.7693 15.25919560164134
SITRO-AIS 8 (ANOKHIN)   
1 57193U 23091AD  26167.17286449  .00011972  00000+0  38769-3 0  9998
2 57193  97.5058 232.6469 0011804 103.0381 257.2178 15.32113817164299
SITRO-AIS 7 (FARTUSHNIY)
1 57194U 23091AE  26167.19912206  .00008253  00000+0  32685-3 0  9997
2 57194  97.5067 230.0387 0012945 110.3686 249.8944 15.25607216164120
SITRO-AIS 10 (BURDAEV)  
1 57199U 23091AK  26167.14363858  .00017071  00000+0  44953-3 0  9999
2 57199  97.5085 237.6607 0007589  83.4582 276.7527 15.38579425164609
SITRO-AIS 9 (SHCHUKIN)  
1 57201U 23091AM  26167.16970568  .00015998  00000+0  42820-3 0  9994
2 57201  97.5083 237.4181 0007826  83.4586 276.7549 15.38089424164591
SITRO-AIS 12 (SMIRENNIY)
1 57204U 23091AQ  26167.16052089  .00017303  00000+0  45854-3 0  9998
2 57204  97.5096 237.8752 0007365  78.6390 281.5682 15.38383183164617
SITRO-AIS 11 (SHEFFER)  
1 57208U 23091AU  26167.17421832  .00016271  00000+0  42552-3 0  9994
2 57208  97.5094 238.1352 0007244  78.4385 281.7673 15.38806775164638
SITRO-AIS 25            
1 59066U 24039R   26167.17019123  .00002202  00000+0  17354-3 0  9998
2 59066  95.3909 234.3936 0143609 332.3416  27.0221 14.93509231124578
SITRO-AIS 26            
1 59067U 24039S   26167.17142528  .00002205  00000+0  17456-3 0  9991
2 59067  95.3909 234.2923 0143953 332.9207  26.4558 14.93305279124561
SITRO-AIS 27            
1 59068U 24039T   26167.20894713  .00002560  00000+0  20050-3 0  9994
2 59068  95.3915 234.5893 0142876 331.4384  27.9065 14.93727171124592
SITRO-AIS 28            
1 59071U 24039U   26167.18641229  .00002669  00000+0  20880-3 0  9998
2 59071  95.3912 234.6210 0142807 331.3127  28.0295 14.93758837124595
GRBBETA                 
1 60237U 24128C   26166.49446256  .00002913  00000+0  20649-3 0  9994
2 60237  61.9889 222.2055 0040850 134.3380 226.1074 15.06630585106017
OOV-CUBE (TUBSAT-30)    
1 60240U 24128F   26166.59161287  .00001776  00000+0  14516-3 0  9999
2 60240  61.9945 231.1374 0044790 133.3400 227.1438 15.02768887105877
ROBUSTA-3A (MEDITERRAN*)
1 60243U 24128J   26167.20879032  .00004451  00000+0  26817-3 0  9995
2 60243  61.9850 211.7048 0041466 127.8532 232.6326 15.11668393106271
LASARSAT                
1 62391U 24247Q   26167.00723506  .00026291  00000+0  52618-3 0  9999
2 62391  44.9746 268.8456 0008258 324.3458  35.6879 15.46313452 83135
CROCUBE                 
1 62394U 24247T   26165.58698051  .00034757  00000+0  65094-3 0  9997
2 62394  44.9722 274.1999 0008187 320.7516  39.2780 15.48102542 82947
FORESAIL-1 PRIME        
1 66778U 25276DS  26167.00824586  .00004523  00000+0  22130-3 0  9995
2 66778  97.4205 240.3003 0003893 107.9199 252.2460 15.18693531 30224
KNACKSAT-2              
1 67683U 98067XZ  26167.06925752  .00039932  00000+0  48947-3 0  9998
2 67683  51.6312 300.0997 0009232 210.2496 149.7965 15.59891318 20102
