OBJECT_NAME,OBJECT_ID,EPOCH,MEAN_MOTION,ECCENTRICITY,INCLINATION,RA_OF_ASC_NODE,ARG_OF_PERICENTER,MEAN_ANOMALY,EPHEMERIS_TYPE,CLASSIFICATION_TYPE,NORAD_CAT_ID,ELEMENT_SET_NO,REV_AT_EPOCH,BSTAR,MEAN_MOTION_DOT,MEAN_MOTION_DDOT
SIRION PATHFINDER-2,2018-099B,2026-06-15T15:53:32.404704,15.14537445,.00072754,97.4253,215.7559,311.6341,48.4267,0,U,43759,999,41239,.2142054E-3,.3885E-4,0
CORVUS BC4,2018-099K,2026-06-15T22:21:05.655744,15.12487398,.0008354,97.4064,209.9482,17.0793,343.0717,0,U,43767,999,41221,.24447E-3,.4194E-4,0
M2 PATHFINDER,2020-037E,2026-06-15T23:35:18.044736,15.04672820,.0012432,97.8148,358.2013,149.6775,210.5173,0,U,45727,999,32531,.12259E-3,.1662E-4,0
NETSAT-4,2020-068U,2026-06-15T22:59:42.572832,15.43830412,.0003977,97.8598,175.1000,343.4852,16.6265,0,U,46504,999,31558,.33012E-3,.14877E-3,0
NETSAT-3,2020-068V,2026-06-15T23:07:23.229120,15.42642077,.0004368,97.8647,173.3237,6.6001,353.5302,0,U,46505,999,31549,.3584E-3,.15528E-3,0
NETSAT-1,2020-068W,2026-06-15T23:04:55.567200,15.34618921,.0005177,97.8738,167.6674,36.2588,323.9003,0,U,46506,999,31511,.31359E-3,.10438E-3,0
NETSAT-2,2020-068X,2026-06-15T23:59:49.612128,15.45954371,.0003599,97.8608,175.0355,30.6879,329.4578,0,U,46507,999,31555,.41545E-3,.20165E-3,0
GREENCUBE (IO-117),2022-080E,2026-06-13T07:02:28.697280,6.42583230,.00089108,70.1444,299.5995,290.4576,69.5127,0,U,53109,999,9181,0,-.3E-7,0
SITRO-AIS 5 (KATYS),2023-091L,2026-06-16T03:41:48.505632,15.29438096,.0012768,97.5063,231.0433,106.5917,253.6726,0,U,57176,999,16418,.36318E-3,.10317E-3,0
SITRO-AIS 6 (CHIRKIN),2023-091AC,2026-06-16T04:42:29.551104,15.25919560,.0013097,97.5069,230.2104,109.4961,250.7693,0,U,57192,999,16413,.34506E-3,.88E-4,0
SITRO-AIS 8 (ANOKHIN),2023-091AD,2026-06-16T04:08:55.491936,15.32113817,.0011804,97.5058,232.6469,103.0381,257.2178,0,U,57193,999,16429,.38769E-3,.11972E-3,0
SITRO-AIS 7 (FARTUSHNIY),2023-091AE,2026-06-16T04:46:44.145984,15.25607216,.0012945,97.5067,230.0387,110.3686,249.8944,0,U,57194,999,16412,.32685E-3,.8253E-4,0
SITRO-AIS 10 (BURDAEV),2023-091AK,2026-06-16T03:26:50.373312,15.38579425,.0007589,97.5085,237.6607,83.4582,276.7527,0,U,57199,999,16460,.44953E-3,.17071E-3,0
SITRO-AIS 9 (SHCHUKIN),2023-091AM,2026-06-16T04:04:22.570752,15.38089424,.0007826,97.5083,237.4181,83.4586,276.7549,0,U,57201,999,16459,.4282E-3,.15998E-3,0
SITRO-AIS 12 (SMIRENNIY),2023-091AQ,2026-06-16T03:51:09.004896,15.38383183,.0007365,97.5096,237.8752,78.6390,281.5682,0,U,57204,999,16461,.45854E-3,.17303E-3,0
SITRO-AIS 11 (SHEFFER),2023-091AU,2026-06-16T04:10:52.462848,15.38806775,.0007244,97.5094,238.1352,78.4385,281.7673,0,U,57208,999,16463,.42552E-3,.16271E-3,0
SITRO-AIS 25,2024-039R,2026-06-16T04:05:04.522272,14.93509231,.0143609,95.3909,234.3936,332.3416,27.0221,0,U,59066,999,12457,.17354E-3,.2202E-4,0
SITRO-AIS 26,2024-039S,2026-06-16T04:06:51.144192,14.93305279,.0143953,95.3909,234.2923,332.9207,26.4558,0,U,59067,999,12456,.17456E-3,.2205E-4,0
SITRO-AIS 27,2024-039T,2026-06-16T05:00:53.032032,14.93727171,.0142876,95.3915,234.5893,331.4384,27.9065,0,U,59068,999,12459,.2005E-3,.256E-4,0
SITRO-AIS 28,2024-039U,2026-06-16T04:28:26.021856,14.93758837,.0142807,95.3912,234.6210,331.3127,28.0295,0,U,59071,999,12459,.2088E-3,.2669E-4,0
GRBBETA,2024-128C,2026-06-15T11:52:01.565184,15.06630585,.00408509,61.9889,222.2055,134.3380,226.1074,0,U,60237,999,10601,.20649176E-3,.2913E-4,0
OOV-CUBE (TUBSAT-30),2024-128F,2026-06-15T14:11:55.351968,15.02768887,.00447908,61.9945,231.1374,133.3400,227.1438,0,U,60240,999,10587,.14515979E-3,.1776E-4,0
ROBUSTA-3A (MEDITERRANEE),2024-128J,2026-06-16T05:00:39.483648,15.11668393,.0041466,61.9850,211.7048,127.8532,232.6326,0,U,60243,999,10627,.26817E-3,.4451E-4,0
LASARSAT,2024-247Q,2026-06-16T00:10:25.109184,15.46313452,.0008258,44.9746,268.8456,324.3458,35.6879,0,U,62391,999,8313,.52618E-3,.26291E-3,0
CROCUBE,2024-247T,2026-06-14T14:05:15.116064,15.48102542,.0008187,44.9722,274.1999,320.7516,39.2780,0,U,62394,999,8294,.65094E-3,.34757E-3,0
FORESAIL-1 PRIME,2025-276DS,2026-06-16T00:11:52.442304,15.18693531,.0003893,97.4205,240.3003,107.9199,252.2460,0,U,66778,999,3022,.2213E-3,.4523E-4,0
KNACKSAT-2,1998-067XZ,2026-06-16T01:39:43.849728,15.59891318,.0009232,51.6312,300.0997,210.2496,149.7965,0,U,67683,999,2010,.48947E-3,.39932E-3,0
